start=new Date('2023-05-01T00:00:00.000Z').valueOf();
sats=[{"RCS_SIZE":"LARGE","PERIOD":"95.592","INCLINATION":"53.0534","MEAN_ANOMALY":"268.4914","ARG_OF_PERICENTER":"91.6153","OBJECT_NAME":"STARLINK-2356","SITE":"AFETR","PERIAPSIS":"546.752","COUNTRY_CODE":"US","EPHEMERIS_TYPE":"0","ECCENTRICITY":"0.00006760","EPOCH":"2023-04-30T11:15:34.486560","ELEMENT_SET_NO":"999","SEMIMAJOR_AXIS":"6925.355","BSTAR":"0.00022355000000","GP_ID":"230975969","OBJECT_TYPE":"PAYLOAD","OBJECT_ID":"2021-021AN","MEAN_MOTION_DDOT":"0.0000000000000","APOAPSIS":"547.689","CLASSIFICATION_TYPE":"U","TLE_LINE1":"1 47896U 21021AN  23120.46914915  .00003050  00000-0  22355-3 0  9995","LAUNCH_DATE":"2021-03-14","NORAD_CAT_ID":"47896","TIME_SYSTEM":"UTC","CENTER_NAME":"EARTH","RA_OF_ASC_NODE":"294.3059","FILE":"3897442","REV_AT_EPOCH":"11854","TLE_LINE2":"2 47896  53.0534 294.3059 0000676  91.6153 268.4914 15.06397757118545","MEAN_MOTION":"15.06397757","MEAN_MOTION_DOT":"0.00003050","DECAY_DATE":null,"MEAN_ELEMENT_THEORY":"SGP4","REF_FRAME":"TEME"},{"COUNTRY_CODE":"US","EPHEMERIS_TYPE":"0","BSTAR":"0.00111120000000","ECCENTRICITY":"0.00011960","EPOCH":"2023-04-30T17:46:18.939936","ELEMENT_SET_NO":"999","SEMIMAJOR_AXIS":"6925.413","ARG_OF_PERICENTER":"70.5723","OBJECT_NAME":"STARLINK-2357","RCS_SIZE":"LARGE","PERIOD":"95.593","INCLINATION":"53.0530","MEAN_ANOMALY":"289.5395","PERIAPSIS":"546.450","SITE":"AFETR","MEAN_MOTION_DOT":"0.00016299","DECAY_DATE":null,"MEAN_ELEMENT_THEORY":"SGP4","RA_OF_ASC_NODE":"278.0862","FILE":"3897480","REV_AT_EPOCH":"11836","TLE_LINE2":"2 47897  53.0530 278.0862 0001196  70.5723 289.5395 15.06379031118362","MEAN_MOTION":"15.06379031","REF_FRAME":"TEME","TLE_LINE1":"1 47897U 21021AP  23120.74049699  .00016299  00000-0  11112-2 0  9992","LAUNCH_DATE":"2021-03-14","CLASSIFICATION_TYPE":"U","NORAD_CAT_ID":"47897","GP_ID":"230981104","OBJECT_TYPE":"PAYLOAD","OBJECT_ID":"2021-021AP","APOAPSIS":"548.106","MEAN_MOTION_DDOT":"0.0000000000000","TIME_SYSTEM":"UTC","CENTER_NAME":"EARTH"},{"TLE_LINE1":"1 47898U 21021AQ  23120.66772276  .00000127  00000-0  27423-4 0  9995","LAUNCH_DATE":"2021-03-14","CLASSIFICATION_TYPE":"U","NORAD_CAT_ID":"47898","GP_ID":"230981103","OBJECT_TYPE":"PAYLOAD","OBJECT_ID":"2021-021AQ","APOAPSIS":"547.566","MEAN_MOTION_DDOT":"0.0000000000000","CENTER_NAME":"EARTH","TIME_SYSTEM":"UTC","MEAN_MOTION_DOT":"0.00000127","DECAY_DATE":null,"MEAN_ELEMENT_THEORY":"SGP4","RA_OF_ASC_NODE":"278.4109","FILE":"3897480","TLE_LINE2":"2 47898  53.0529 278.4109 0000482  97.2578 262.8466 15.06393830118366","REV_AT_EPOCH":"11836","MEAN_MOTION":"15.06393830","REF_FRAME":"TEME","ARG_OF_PERICENTER":"97.2578","OBJECT_NAME":"STARLINK-2358","RCS_SIZE":"LARGE","PERIOD":"95.593","INCLINATION":"53.0529","MEAN_ANOMALY":"262.8466","PERIAPSIS":"546.899","SITE":"AFETR","COUNTRY_CODE":"US","EPHEMERIS_TYPE":"0","BSTAR":"0.00002742300000","ECCENTRICITY":"0.00004820","EPOCH":"2023-04-30T16:01:31.246464","ELEMENT_SET_NO":"999","SEMIMAJOR_AXIS":"6925.367"},{"ARG_OF_PERICENTER":"90.1372","OBJECT_NAME":"STARLINK-2359","INCLINATION":"53.0498","PERIOD":"91.326","MEAN_ANOMALY":"41.5961","RCS_SIZE":"LARGE","PERIAPSIS":"338.971","SITE":"AFETR","EPHEMERIS_TYPE":"0","COUNTRY_CODE":"US","BSTAR":"-0.00029119000000","SEMIMAJOR_AXIS":"6717.756","ECCENTRICITY":"0.00009680","EPOCH":"2023-04-30T14:00:01.000224","ELEMENT_SET_NO":"999","NORAD_CAT_ID":"47899","TLE_LINE1":"1 47899U 21021AR  23120.58334491 -.00048120  00000-0 -29119-3 0  9990","CLASSIFICATION_TYPE":"U","LAUNCH_DATE":"2021-03-14","OBJECT_ID":"2021-021AR","APOAPSIS":"340.271","MEAN_MOTION_DDOT":"0.0000000000000","GP_ID":"230946171","OBJECT_TYPE":"PAYLOAD","TIME_SYSTEM":"UTC","CENTER_NAME":"EARTH","MEAN_ELEMENT_THEORY":"SGP4","MEAN_MOTION_DOT":"-0.00048120","DECAY_DATE":null,"REV_AT_EPOCH":"11860","TLE_LINE2":"2 47899  53.0498 260.5633 0000968  90.1372  41.5961 15.76763074118606","MEAN_MOTION":"15.76763074","RA_OF_ASC_NODE":"260.5633","FILE":"3897142","REF_FRAME":"TEME"},{"APOAPSIS":"547.728","MEAN_MOTION_DDOT":"0.0000000000000","OBJECT_ID":"2021-021AS","OBJECT_TYPE":"PAYLOAD","GP_ID":"230951406","NORAD_CAT_ID":"47900","LAUNCH_DATE":"2021-03-14","TLE_LINE1":"1 47900U 21021AS  23120.62254309  .00012681  00000-0  86918-3 0  9998","CLASSIFICATION_TYPE":"U","TIME_SYSTEM":"UTC","CENTER_NAME":"EARTH","MEAN_MOTION":"15.06379069","REV_AT_EPOCH":"11835","TLE_LINE2":"2 47900  53.0531 278.6167 0000650 325.0518  35.0428 15.06379069118357","FILE":"3897364","RA_OF_ASC_NODE":"278.6167","MEAN_ELEMENT_THEORY":"SGP4","DECAY_DATE":null,"MEAN_MOTION_DOT":"0.00012681","REF_FRAME":"TEME","MEAN_ANOMALY":"35.0428","PERIOD":"95.593","INCLINATION":"53.0531","RCS_SIZE":"LARGE","OBJECT_NAME":"STARLINK-2360","ARG_OF_PERICENTER":"325.0518","SITE":"AFETR","PERIAPSIS":"546.828","EPHEMERIS_TYPE":"0","COUNTRY_CODE":"US","SEMIMAJOR_AXIS":"6925.413","ELEMENT_SET_NO":"999","EPOCH":"2023-04-30T14:56:27.722976","ECCENTRICITY":"0.00006500","BSTAR":"0.00086918000000"},{"CENTER_NAME":"EARTH","TIME_SYSTEM":"UTC","CLASSIFICATION_TYPE":"U","TLE_LINE1":"1 47901U 21021AT  23120.72025760  .00017679  00000-0  12033-2 0  9995","LAUNCH_DATE":"2021-03-14","NORAD_CAT_ID":"47901","GP_ID":"230981122","OBJECT_TYPE":"PAYLOAD","OBJECT_ID":"2021-021AT","MEAN_MOTION_DDOT":"0.0000000000000","APOAPSIS":"547.655","REF_FRAME":"TEME","MEAN_MOTION_DOT":"0.00017679","DECAY_DATE":null,"MEAN_ELEMENT_THEORY":"SGP4","RA_OF_ASC_NODE":"268.2632","FILE":"3897487","TLE_LINE2":"2 47901  53.0524 268.2632 0000564  84.3625 275.7428 15.06383367118506","REV_AT_EPOCH":"11850","MEAN_MOTION":"15.06383367","PERIAPSIS":"546.874","SITE":"AFETR","ARG_OF_PERICENTER":"84.3625","OBJECT_NAME":"STARLINK-2361","RCS_SIZE":"LARGE","PERIOD":"95.593","INCLINATION":"53.0524","MEAN_ANOMALY":"275.7428","BSTAR":"0.00120330000000","ECCENTRICITY":"0.00005640","ELEMENT_SET_NO":"999","EPOCH":"2023-04-30T17:17:10.256640","SEMIMAJOR_AXIS":"6925.400","COUNTRY_CODE":"US","EPHEMERIS_TYPE":"0"},{"SITE":"AFETR","PERIAPSIS":"546.836","RCS_SIZE":"LARGE","PERIOD":"95.592","INCLINATION":"53.0527","MEAN_ANOMALY":"283.8093","ARG_OF_PERICENTER":"76.2958","OBJECT_NAME":"STARLINK-2362","ECCENTRICITY":"0.00005580","ELEMENT_SET_NO":"999","EPOCH":"2023-04-30T18:28:48.992736","SEMIMAJOR_AXIS":"6925.358","BSTAR":"0.00045799000000","COUNTRY_CODE":"US","EPHEMERIS_TYPE":"0","TIME_SYSTEM":"UTC","CENTER_NAME":"EARTH","GP_ID":"230980765","OBJECT_TYPE":"PAYLOAD","OBJECT_ID":"2021-021AU","MEAN_MOTION_DDOT":"0.0000000000000","APOAPSIS":"547.609","CLASSIFICATION_TYPE":"U","TLE_LINE1":"1 47902U 21021AU  23120.77001149  .00006546  00000-0  45799-3 0  9993","LAUNCH_DATE":"2021-03-14","NORAD_CAT_ID":"47902","REF_FRAME":"TEME","RA_OF_ASC_NODE":"287.9532","FILE":"3897481","TLE_LINE2":"2 47902  53.0527 287.9532 0000558  76.2958 283.8093 15.06396942118229","REV_AT_EPOCH":"11822","MEAN_MOTION":"15.06396942","MEAN_MOTION_DOT":"0.00006546","DECAY_DATE":null,"MEAN_ELEMENT_THEORY":"SGP4"},{"SEMIMAJOR_AXIS":"6925.368","ECCENTRICITY":"0.00014400","ELEMENT_SET_NO":"999","EPOCH":"2023-04-30T14:15:21.167136","BSTAR":"0.00121450000000","EPHEMERIS_TYPE":"0","COUNTRY_CODE":"US","SITE":"AFETR","PERIAPSIS":"546.236","INCLINATION":"53.0528","PERIOD":"95.593","MEAN_ANOMALY":"321.9665","RCS_SIZE":"LARGE","ARG_OF_PERICENTER":"38.1426","OBJECT_NAME":"STARLINK-2363","REF_FRAME":"TEME","REV_AT_EPOCH":"11930","TLE_LINE2":"2 47903  53.0528 268.7335 0001440  38.1426 321.9665 15.06393559119307","MEAN_MOTION":"15.06393559","RA_OF_ASC_NODE":"268.7335","FILE":"3897442","MEAN_ELEMENT_THEORY":"SGP4","MEAN_MOTION_DOT":"0.00017851","DECAY_DATE":null,"CENTER_NAME":"EARTH","TIME_SYSTEM":"UTC","OBJECT_ID":"2021-021AV","APOAPSIS":"548.231","MEAN_MOTION_DDOT":"0.0000000000000","GP_ID":"230974718","OBJECT_TYPE":"PAYLOAD","NORAD_CAT_ID":"47903","TLE_LINE1":"1 47903U 21021AV  23120.59399499  .00017851  00000-0  12145-2 0  9991","CLASSIFICATION_TYPE":"U","LAUNCH_DATE":"2021-03-14"},{"ECCENTRICITY":"0.00008140","ELEMENT_SET_NO":"999","EPOCH":"2023-04-30T14:11:23.603424","SEMIMAJOR_AXIS":"6925.376","BSTAR":"0.00050131000000","COUNTRY_CODE":"US","EPHEMERIS_TYPE":"0","SITE":"AFETR","PERIAPSIS":"546.677","RCS_SIZE":"LARGE","INCLINATION":"53.0528","PERIOD":"95.593","MEAN_ANOMALY":"253.0401","ARG_OF_PERICENTER":"107.0677","OBJECT_NAME":"STARLINK-2364","REF_FRAME":"TEME","RA_OF_ASC_NODE":"268.7548","FILE":"3897442","TLE_LINE2":"2 47904  53.0528 268.7548 0000814 107.0677 253.0401 15.06391111118946","REV_AT_EPOCH":"11894","MEAN_MOTION":"15.06391111","MEAN_MOTION_DOT":"0.00007192","DECAY_DATE":null,"MEAN_ELEMENT_THEORY":"SGP4","TIME_SYSTEM":"UTC","CENTER_NAME":"EARTH","GP_ID":"230975970","OBJECT_TYPE":"PAYLOAD","OBJECT_ID":"2021-021AW","MEAN_MOTION_DDOT":"0.0000000000000","APOAPSIS":"547.805","TLE_LINE1":"1 47904U 21021AW  23120.59124541  .00007192  00000-0  50131-3 0  9991","LAUNCH_DATE":"2021-03-14","CLASSIFICATION_TYPE":"U","NORAD_CAT_ID":"47904"},{"OBJECT_TYPE":"PAYLOAD","GP_ID":"230980796","MEAN_MOTION_DDOT":"0.0000000000000","APOAPSIS":"547.750","OBJECT_ID":"2021-021AX","LAUNCH_DATE":"2021-03-14","TLE_LINE1":"1 47905U 21021AX  23120.71929840  .00014961  00000-0  10215-2 0  9991","CLASSIFICATION_TYPE":"U","NORAD_CAT_ID":"47905","CENTER_NAME":"EARTH","TIME_SYSTEM":"UTC","FILE":"3897484","RA_OF_ASC_NODE":"268.1707","MEAN_MOTION":"15.06386160","TLE_LINE2":"2 47905  53.0531 268.1707 0000713 118.7705 241.3356 15.06386160118511","REV_AT_EPOCH":"11851","DECAY_DATE":null,"MEAN_MOTION_DOT":"0.00014961","MEAN_ELEMENT_THEORY":"SGP4","REF_FRAME":"TEME","RCS_SIZE":"LARGE","MEAN_ANOMALY":"241.3356","INCLINATION":"53.0531","PERIOD":"95.593","OBJECT_NAME":"STARLINK-2365","ARG_OF_PERICENTER":"118.7705","SITE":"AFETR","PERIAPSIS":"546.762","COUNTRY_CODE":"US","EPHEMERIS_TYPE":"0","ELEMENT_SET_NO":"999","EPOCH":"2023-04-30T17:15:47.381760","ECCENTRICITY":"0.00007130","SEMIMAJOR_AXIS":"6925.391","BSTAR":"0.00102150000000"}];
